0 VANGUARD R/B
1 00016U 58002A   13281.27399379  .00000016  00000-0  40174-4 0  1838
2 00016 034.2659 010.7495 2027785 013.9941 350.9253 10.48366845202244
0 VANGUARD R/B
1 00016U 58002A   13285.46787150  .00000007  00000-0  33419-4 0  1846
2 00016 034.2659 358.6464 2027949 031.6678 339.1319 10.48367368202681
0 VANGUARD R/B
1 00016U 58002A   13289.47095108  .00000031  00000-0  70388-4 0  1850
2 00016 034.2656 347.0941 2028068 048.5408 327.2473 10.48368046203102
0 VANGUARD R/B
1 00016U 58002A   13294.14087546  .00000040  00000-0  84759-4 0  1865
2 00016 034.2655 333.6185 2028021 068.2234 312.1276 10.48368525203596
